{
  "type": "FeatureCollection",
  "features": [
    {
      "type": "Feature",
      "properties": {
        "norad_id": 33835,
        "name": "COSMOS 2251 DEB",
        "group": "cosmos-2251-debris",
        "lat": -15.217061375874462,
        "lon": 67.66503824599481,
        "alt_km": 717.3660965659328,
        "timestamp": "2025-12-27T21:25:02.909491+00:00",
        "meta_object_name": "COSMOS 2251 DEB",
        "meta_object_id": "1993-036CC",
        "meta_epoch": "2025-12-27T11:43:49.181952",
        "meta_mean_motion": 14.62389775,
        "meta_eccentricity": 0.0053562,
        "meta_inclination": 74.0575,
        "meta_ra_of_asc_node": 72.8964,
        "meta_arg_of_pericenter": 122.012,
        "meta_mean_anomaly": 258.5984,
        "meta_ephemeris_type": 0,
        "meta_classification_type": "U",
        "meta_norad_cat_id": 33835,
        "meta_element_set_no": 999,
        "meta_rev_at_epoch": 89005,
        "meta_bstar": 0.00094202,
        "meta_mean_motion_dot": 4.836e-05,
        "meta_mean_motion_ddot": 0,
        "tle_line1": "1 33835U 93036CC  25361.48876368  .00004836  00000+0  94202-3 0  9990",
        "tle_line2": "2 33835  74.0575  72.8964 0053562 122.0120 258.5984 14.62389775890052"
      },
      "geometry": {
        "type": "Point",
        "coordinates": [
          67.66503824599481,
          -15.217061375874462
        ]
      }
    },
    {
      "type": "Feature",
      "properties": {
        "norad_id": 33836,
        "name": "COSMOS 2251 DEB",
        "group": "cosmos-2251-debris",
        "lat": -54.84865598874593,
        "lon": 73.09980217628944,
        "alt_km": 651.6852898223124,
        "timestamp": "2025-12-27T21:25:02.909502+00:00",
        "meta_object_name": "COSMOS 2251 DEB",
        "meta_object_id": "1993-036CD",
        "meta_epoch": "2025-12-27T09:48:18.949824",
        "meta_mean_motion": 14.79863951,
        "meta_eccentricity": 0.0022967,
        "meta_inclination": 73.9963,
        "meta_ra_of_asc_node": 230.0007,
        "meta_arg_of_pericenter": 77.6446,
        "meta_mean_anomaly": 103.8817,
        "meta_ephemeris_type": 0,
        "meta_classification_type": "U",
        "meta_norad_cat_id": 33836,
        "meta_element_set_no": 999,
        "meta_rev_at_epoch": 64305,
        "meta_bstar": 0.0011544,
        "meta_mean_motion_dot": 8.721e-05,
        "meta_mean_motion_ddot": 0,
        "tle_line1": "1 33836U 93036CD  25361.40855266  .00008721  00000+0  11544-2 0  9991",
        "tle_line2": "2 33836  73.9963 230.0007 0022967  77.6446 103.8817 14.79863951643053"
      },
      "geometry": {
        "type": "Point",
        "coordinates": [
          73.09980217628944,
          -54.84865598874593
        ]
      }
    },
    {
      "type": "Feature",
      "properties": {
        "norad_id": 33837,
        "name": "COSMOS 2251 DEB",
        "group": "cosmos-2251-debris",
        "lat": 68.16897382493067,
        "lon": 72.76891859611848,
        "alt_km": 741.4445162371048,
        "timestamp": "2025-12-27T21:25:02.909513+00:00",
        "meta_object_name": "COSMOS 2251 DEB",
        "meta_object_id": "1993-036CE",
        "meta_epoch": "2025-12-27T11:08:28.502592",
        "meta_mean_motion": 14.50732352,
        "meta_eccentricity": 0.0035851,
        "meta_inclination": 74.0121,
        "meta_ra_of_asc_node": 27.8751,
        "meta_arg_of_pericenter": 247.2836,
        "meta_mean_anomaly": 112.4533,
        "meta_ephemeris_type": 0,
        "meta_classification_type": "U",
        "meta_norad_cat_id": 33837,
        "meta_element_set_no": 999,
        "meta_rev_at_epoch": 89009,
        "meta_bstar": 0.00028747,
        "meta_mean_motion_dot": 1.111e-05,
        "meta_mean_motion_ddot": 0,
        "tle_line1": "1 33837U 93036CE  25361.46421878  .00001111  00000+0  28747-3 0  9996",
        "tle_line2": "2 33837  74.0121  27.8751 0035851 247.2836 112.4533 14.50732352890092"
      },
      "geometry": {
        "type": "Point",
        "coordinates": [
          72.76891859611848,
          68.16897382493067
        ]
      }
    },
    {
      "type": "Feature",
      "properties": {
        "norad_id": 33838,
        "name": "COSMOS 2251 DEB",
        "group": "cosmos-2251-debris",
        "lat": -0.26820981619061657,
        "lon": -58.48660030690075,
        "alt_km": 724.0209898277435,
        "timestamp": "2025-12-27T21:25:02.909524+00:00",
        "meta_object_name": "COSMOS 2251 DEB",
        "meta_object_id": "1993-036CF",
        "meta_epoch": "2025-12-27T12:39:57.453120",
        "meta_mean_motion": 14.48410415,
        "meta_eccentricity": 0.0027448,
        "meta_inclination": 74.037,
        "meta_ra_of_asc_node": 122.1193,
        "meta_arg_of_pericenter": 242.0088,
        "meta_mean_anomaly": 197.8338,
        "meta_ephemeris_type": 0,
        "meta_classification_type": "U",
        "meta_norad_cat_id": 33838,
        "meta_element_set_no": 999,
        "meta_rev_at_epoch": 88783,
        "meta_bstar": 0.00050809,
        "meta_mean_motion_dot": 1.885e-05,
        "meta_mean_motion_ddot": 0,
        "tle_line1": "1 33838U 93036CF  25361.52774830  .00001885  00000+0  50809-3 0  9995",
        "tle_line2": "2 33838  74.0370 122.1193 0027448 242.0088 197.8338 14.48410415887831"
      },
      "geometry": {
        "type": "Point",
        "coordinates": [
          -58.48660030690075,
          -0.26820981619061657
        ]
      }
    },
    {
      "type": "Feature",
      "properties": {
        "norad_id": 33839,
        "name": "COSMOS 2251 DEB",
        "group": "cosmos-2251-debris",
        "lat": -71.89282686216863,
        "lon": 58.44930834762759,
        "alt_km": 630.9006023569073,
        "timestamp": "2025-12-27T21:25:02.909534+00:00",
        "meta_object_name": "COSMOS 2251 DEB",
        "meta_object_id": "1993-036CG",
        "meta_epoch": "2025-12-27T12:20:00.582432",
        "meta_mean_motion": 14.64457852,
        "meta_eccentricity": 0.0085381,
        "meta_inclination": 74.0374,
        "meta_ra_of_asc_node": 178.0903,
        "meta_arg_of_pericenter": 286.8177,
        "meta_mean_anomaly": 140.2836,
        "meta_ephemeris_type": 0,
        "meta_classification_type": "U",
        "meta_norad_cat_id": 33839,
        "meta_element_set_no": 999,
        "meta_rev_at_epoch": 89796,
        "meta_bstar": 0.00027614,
        "meta_mean_motion_dot": 1.508e-05,
        "meta_mean_motion_ddot": 0,
        "tle_line1": "1 33839U 93036CG  25361.51389563  .00001508  00000+0  27614-3 0  9990",
        "tle_line2": "2 33839  74.0374 178.0903 0085381 286.8177 140.2836 14.64457852897964"
      },
      "geometry": {
        "type": "Point",
        "coordinates": [
          58.44930834762759,
          -71.89282686216863
        ]
      }
    },
    {
      "type": "Feature",
      "properties": {
        "norad_id": 33841,
        "name": "COSMOS 2251 DEB",
        "group": "cosmos-2251-debris",
        "lat": -14.925682535477302,
        "lon": -114.2314486507324,
        "alt_km": 755.4032301007665,
        "timestamp": "2025-12-27T21:25:02.909545+00:00",
        "meta_object_name": "COSMOS 2251 DEB",
        "meta_object_id": "1993-036CJ",
        "meta_epoch": "2025-12-27T10:37:26.198112",
        "meta_mean_motion": 14.37880978,
        "meta_eccentricity": 0.0021105,
        "meta_inclination": 74.037,
        "meta_ra_of_asc_node": 250.9721,
        "meta_arg_of_pericenter": 328.7282,
        "meta_mean_anomaly": 208.7419,
        "meta_ephemeris_type": 0,
        "meta_classification_type": "U",
        "meta_norad_cat_id": 33841,
        "meta_element_set_no": 999,
        "meta_rev_at_epoch": 88325,
        "meta_bstar": 0.00022408,
        "meta_mean_motion_dot": 6.51e-06,
        "meta_mean_motion_ddot": 0,
        "tle_line1": "1 33841U 93036CJ  25361.44266433  .00000651  00000+0  22408-3 0  9999",
        "tle_line2": "2 33841  74.0370 250.9721 0021105 328.7282 208.7419 14.37880978883251"
      },
      "geometry": {
        "type": "Point",
        "coordinates": [
          -114.2314486507324,
          -14.925682535477302
        ]
      }
    },
    {
      "type": "Feature",
      "properties": {
        "norad_id": 33842,
        "name": "COSMOS 2251 DEB",
        "group": "cosmos-2251-debris",
        "lat": 35.46080124458423,
        "lon": -0.2422777276998975,
        "alt_km": 776.9816905998987,
        "timestamp": "2025-12-27T21:25:02.909556+00:00",
        "meta_object_name": "COSMOS 2251 DEB",
        "meta_object_id": "1993-036CK",
        "meta_epoch": "2025-12-27T12:26:00.766752",
        "meta_mean_motion": 14.42725395,
        "meta_eccentricity": 0.0047629,
        "meta_inclination": 74.0314,
        "meta_ra_of_asc_node": 192.2203,
        "meta_arg_of_pericenter": 296.6395,
        "meta_mean_anomaly": 62.9887,
        "meta_ephemeris_type": 0,
        "meta_classification_type": "U",
        "meta_norad_cat_id": 33842,
        "meta_element_set_no": 999,
        "meta_rev_at_epoch": 88550,
        "meta_bstar": 0.00030375,
        "meta_mean_motion_dot": 9.98e-06,
        "meta_mean_motion_ddot": 0,
        "tle_line1": "1 33842U 93036CK  25361.51806443  .00000998  00000+0  30375-3 0  9995",
        "tle_line2": "2 33842  74.0314 192.2203 0047629 296.6395  62.9887 14.42725395885506"
      },
      "geometry": {
        "type": "Point",
        "coordinates": [
          -0.2422777276998975,
          35.46080124458423
        ]
      }
    }
  ]
}